STARLINK-2489_new
1 18146C 21027BG  21326.16719016 -.00008882  00000-0 -59494-3 0  3266
2 18146  53.0558  12.9854 0001593  56.4021 100.5492 15.06418595    12
STARLINK-2489_old
1 28146C 21027BG  21325.15364156  .00002945  00000-0  19735-3 0  3250
2 28146  53.0555  17.5355 0001513  57.3556   0.0440 15.06396299    14
